NORAD_CAT_ID,OBJECT_NAME,OBJECT_TYPE,EPOCH,MEAN_MOTION,ECCENTRICITY,INCLINATION,RA_OF_ASC_NODE,ARG_OF_PERICENTER,MEAN_ANOMALY,BSTAR,MEAN_MOTION_DOT,MEAN_MOTION_DDOT,TLE_LINE0,TLE_LINE1,TLE_LINE2,SEMIMAJOR_AXIS,PERIOD,APOGEE,PERIGEE,DECAYED
49141.0,STARLINK-3093,PAYLOAD,2022-06-20 08:12:53,14.98331898,0.0002475,69.9989,119.3193,257.9459,102.1422,-4.6614e-05,-6.49e-06,0.0,0 STARLINK-3093,1 49141U 21082M   22171.34228074 -.00000649  00000-0 -46614-4 0  9991,2 49141  69.9989 119.3193 0002475 257.9459 102.1422 14.98331898 43718,6950.187,96.107,573.7719999999998,570.332,0.0
49141.0,STARLINK-3093,PAYLOAD,2022-06-21 03:26:29,14.98336216,0.0002695,69.9991,117.2994,259.1878,100.8977,6.6802e-05,7.04e-06,0.0,0 STARLINK-3093,1 49141U 21082M   22172.14339417  .00000704  00000-0  66802-4 0  9995,2 49141  69.9991 117.2994 0002695 259.1878 100.8977 14.98336216 43832,6950.174,96.107,573.9119999999998,570.1659999999998,0.0
49141.0,STARLINK-3093,PAYLOAD,2022-06-21 13:03:17,14.98343081,0.0002682,69.9984,116.2892,259.4586,100.6271,9.5156e-05,1.043e-05,0.0,0 STARLINK-3093,1 49141U 21082M   22172.54394727  .00001043  00000-0  95156-4 0  9995,2 49141  69.9984 116.2892 0002682 259.4586 100.6271 14.98343081 43894,6950.151999999999,96.106,573.881,570.153,0.0
49141.0,STARLINK-3093,PAYLOAD,2022-06-21 21:03:57,14.98346931,0.0002329,69.9997,115.4477,261.0413,99.0483,-0.00017304,-2.158e-05,0.0,0 STARLINK-3093,1 49141U 21082M   22172.87775016 -.00002158  00000-0 -17304-3 0  9993,2 49141  69.9997 115.4477 0002329 261.0413  99.0483 14.98346931 43943,6950.141,96.106,573.624,570.387,0.0
49141.0,STARLINK-3093,PAYLOAD,2022-06-22 05:04:38,14.98324432,0.0002469,69.9992,114.6063,259.6452,100.4429,7.1318e-05,7.58e-06,0.0,0 STARLINK-3093,1 49141U 21082M   22173.21155971  .00000758  00000-0  71318-4 0  9992,2 49141  69.9992 114.6063 0002469 259.6452 100.4429 14.98324432 43995,6950.21,96.107,573.7909999999998,570.359,0.0
49141.0,STARLINK-3093,PAYLOAD,2022-06-22 06:40:46,14.98325509,0.0002486,69.9988,114.4377,260.3488,99.7391,7.9851e-05,8.599999999999999e-06,0.0,0 STARLINK-3093,1 49141U 21082M   22173.27831895  .00000860  00000-0  79851-4 0  9998,2 49141  69.9988 114.4377 0002486 260.3488  99.7391 14.98325509 44000,6950.206999999999,96.107,573.8,570.344,0.0
49141.0,STARLINK-3093,PAYLOAD,2022-06-23 01:54:22,14.98341324,0.0002577,69.9988,112.418,257.316,102.7711,4.024800000000001e-05,3.87e-06,0.0,0 STARLINK-3093,1 49141U 21082M   22174.07942748  .00000387  00000-0  40248-4 0  9999,2 49141  69.9988 112.4180 0002577 257.3160 102.7711 14.98341324 44121,6950.158,96.106,573.814,570.232,0.0
49141.0,STARLINK-3093,PAYLOAD,2022-06-23 06:42:47,14.98332152,0.0002808,69.9985,111.9132,256.7905,103.2941,-0.00010194,-1.309e-05,0.0,0 STARLINK-3093,1 49141U 21082M   22174.27971558 -.00001309  00000-0 -10194-3 0  9995,2 49141  69.9985 111.9132 0002808 256.7905 103.2941 14.98332152 44159,6950.186,96.107,574.003,570.1,0.0
49141.0,STARLINK-3093,PAYLOAD,2022-06-23 13:07:19,14.98350943,0.0002856,69.9981,111.2399,255.8773,104.2068,-0.00045948,-5.574e-05,0.0,0 STARLINK-3093,1 49141U 21082M   22174.54674923 -.00005574  00000-0 -45948-3 0  9994,2 49141  69.9981 111.2399 0002856 255.8773 104.2068 14.98350943 44192,6950.128000000002,96.106,573.9780000000002,570.008,0.0
49141.0,STARLINK-3093,PAYLOAD,2022-06-24 01:56:24,14.98325689,0.0003007,69.998,109.8931,259.4634,100.6187,-2.1385e-06,-1.19e-06,0.0,0 STARLINK-3093,1 49141U 21082M   22175.08083722 -.00000119  00000-0 -21385-5 0  9996,2 49141  69.9980 109.8931 0003007 259.4634 100.6187 14.98325689 44271,6950.206,96.107,574.161,569.981,0.0
49141.0,STARLINK-3093,PAYLOAD,2022-06-24 06:44:48,14.98332008,0.0002822,69.9986,109.3885,259.436,100.6481,8.483799999999999e-05,9.19e-06,0.0,0 STARLINK-3093,1 49141U 21082M   22175.28111170  .00000919  00000-0  84838-4 0  9994,2 49141  69.9986 109.3885 0002822 259.4360 100.6481 14.98332008 44304,6950.187,96.107,574.013,570.09,0.0
49141.0,STARLINK-3093,PAYLOAD,2022-06-24 21:10:00,14.98368737,0.0002838,69.9987,107.8735,262.7922,97.2915,-0.0005198,-6.296e-05,0.0,0 STARLINK-3093,1 49141U 21082M   22175.88194744 -.00006296  00000-0 -51980-3 0  9995,2 49141  69.9987 107.8735 0002838 262.7922  97.2915 14.98368737 44390,6950.073,96.105,573.911,569.966,0.0
49141.0,STARLINK-3093,PAYLOAD,2022-06-25 06:46:49,14.98327255,0.0002708,69.9989,106.8636,258.1335,101.952,-3.2674e-05,-4.83e-06,0.0,0 STARLINK-3093,1 49141U 21082M   22176.28251675 -.00000483  00000-0 -32674-4 0  9999,2 49141  69.9989 106.8636 0002708 258.1335 101.9520 14.98327255 44456,6950.201,96.107,573.948,570.184,0.0
49141.0,STARLINK-3093,PAYLOAD,2022-06-25 13:11:22,14.98320077,0.0002745,69.9988,106.1901,260.0231,100.0618,1.7025e-05,1.1e-06,0.0,0 STARLINK-3093,1 49141U 21082M   22176.54956116  .00000110  00000-0  17025-4 0  9998,2 49141  69.9988 106.1901 0002745 260.0231 100.0618 14.98320077 44498,6950.224,96.108,573.996,570.181,0.0
49141.0,STARLINK-3093,PAYLOAD,2022-06-25 19:35:54,14.98323025,0.0002733,69.9987,105.5168,260.3397,99.7453,7.4646e-06,-4e-08,0.0,0 STARLINK-3093,1 49141U 21082M   22176.81660089 -.00000004  00000-0  74646-5 0  9995,2 49141  69.9987 105.5168 0002733 260.3397  99.7453 14.98323025 44530,6950.214,96.107,573.979,570.18,0.0
49141.0,STARLINK-3093,PAYLOAD,2022-06-26 03:36:34,14.98329362,0.0002779,69.9987,104.6749,259.5087,100.5759,1.2716e-05,5.9e-07,0.0,0 STARLINK-3093,1 49141U 21082M   22177.15039771  .00000059  00000-0  12716-4 0  9999,2 49141  69.9987 104.6749 0002779 259.5087 100.5759 14.98329362 44586,6950.195,96.107,573.991,570.128,0.0
49141.0,STARLINK-3093,PAYLOAD,2022-06-26 06:48:50,14.98331463,0.0002764,69.9988,104.3382,259.405,100.6798,3.7416e-05,3.53e-06,0.0,0 STARLINK-3093,1 49141U 21082M   22177.28391572  .00000353  00000-0  37416-4 0  9994,2 49141  69.9988 104.3382 0002764 259.4050 100.6798 14.98331463 44602,6950.188,96.107,573.974,570.132,0.0
49141.0,STARLINK-3093,PAYLOAD,2022-06-26 21:14:02,14.98336045,0.0002783,69.9985,102.8232,259.2552,100.8293,6.3502e-05,6.65e-06,0.0,0 STARLINK-3093,1 49141U 21082M   22177.88475077  .00000665  00000-0  63502-4 0  9994,2 49141  69.9985 102.8232 0002783 259.2552 100.8293 14.98336045 44694,6950.174,96.107,573.9730000000002,570.105,0.0
49141.0,STARLINK-3093,PAYLOAD,2022-06-27 11:39:15,14.98327816,0.0002802,69.9986,101.3083,259.3708,100.7135,0.00012304,1.375e-05,0.0,0 STARLINK-3093,1 49141U 21082M   22178.48559338  .00001375  00000-0  12304-3 0  9996,2 49141  69.9986 101.3083 0002802 259.3708 100.7135 14.98327816 44789,6950.2,96.107,574.012,570.117,0.0
49141.0,STARLINK-3093,PAYLOAD,2022-06-27 21:16:03,14.983270999999998,0.0002723,69.9987,100.2984,258.8683,101.217,5.1416e-05,5.21e-06,0.0,0 STARLINK-3093,1 49141U 21082M   22178.88615628  .00000521  00000-0  51416-4 0  9995,2 49141  69.9987 100.2984 0002723 258.8683 101.2170 14.98327100 44844,6950.2019999999975,96.107,573.9590000000002,570.174,0.0
49141.0,STARLINK-3093,PAYLOAD,2022-06-28 11:41:16,14.98332935,0.0002717,69.9987,98.7833,259.2301,100.8552,3.8411e-05,3.65e-06,0.0,0 STARLINK-3093,1 49141U 21082M   22179.48699271  .00000365  00000-0  38411-4 0  9994,2 49141  69.9987  98.7833 0002717 259.2301 100.8552 14.98332935 44934,6950.184,96.107,573.937,570.16,0.0
49141.0,STARLINK-3093,PAYLOAD,2022-06-28 21:18:04,14.98332651,0.0002729,69.9989,97.7727,260.9769,99.1081,-4.8775e-05,-6.75e-06,0.0,0 STARLINK-3093,1 49141U 21082M   22179.88755406 -.00000675  00000-0 -48775-4 0  9991,2 49141  69.9989  97.7727 0002729 260.9769  99.1081 14.98332651 44995,6950.185,96.107,573.946,570.153,0.0
49141.0,STARLINK-3093,PAYLOAD,2022-06-29 05:18:45,14.98322281,0.0002856,69.9989,96.9318,256.084,104.0001,-0.0001536,-1.925e-05,0.0,0 STARLINK-3093,1 49141U 21082M   22180.22136397 -.00001925  00000-0 -15360-3 0  9995,2 49141  69.9989  96.9318 0002856 256.0840 104.0001 14.98322281 45042,6950.217,96.107,574.067,570.097,0.0
49141.0,STARLINK-3093,PAYLOAD,2022-06-29 11:43:18,14.98324238,0.0002862,69.9989,96.2589,256.7284,103.3556,-0.00013412,-1.693e-05,0.0,0 STARLINK-3093,1 49141U 21082M   22180.48840315 -.00001693  00000-0 -13412-3 0  9993,2 49141  69.9989  96.2589 0002862 256.7284 103.3556 14.98324238 45086,6950.2109999999975,96.107,574.065,570.087,0.0
49141.0,STARLINK-3093,PAYLOAD,2022-06-29 21:20:06,14.98320673,0.0002794,69.9991,95.2489,257.8337,102.2509,-2.3151e-05,-3.69e-06,0.0,0 STARLINK-3093,1 49141U 21082M   22180.88896552 -.00000369  00000-0 -23151-4 0  9992,2 49141  69.9991  95.2489 0002794 257.8337 102.2509 14.98320673 45144,6950.222,96.108,574.029,570.145,0.0
49141.0,STARLINK-3093,PAYLOAD,2022-06-30 03:44:38,14.98323685,0.0002961,69.9987,94.5745,259.4175,100.665,-2.1294e-05,-3.47e-06,0.0,0 STARLINK-3093,1 49141U 21082M   22181.15600453 -.00000347  00000-0 -21294-4 0  9998,2 49141  69.9987  94.5745 0002961 259.4175 100.6650 14.98323685 45189,6950.212,96.107,574.135,570.019,0.0
49141.0,STARLINK-3093,PAYLOAD,2022-06-30 19:45:59,14.98340959,0.0002796,69.999,92.8919,260.3635,99.7208,-0.00030267,-3.703e-05,0.0,0 STARLINK-3093,1 49141U 21082M   22181.82360342 -.00003703  00000-0 -30267-3 0  9990,2 49141  69.9990  92.8919 0002796 260.3635  99.7208 14.98340959 45286,6950.159000000002,96.106,573.967,570.081,0.0
49141.0,STARLINK-3093,PAYLOAD,2022-06-30 21:22:08,14.98299793,0.0003174,69.9991,92.7238,255.1664,104.9144,0.00042803,5.014e-05,0.0,0 STARLINK-3093,1 49141U 21082M   22181.89037252  .00005014  00000-0  42803-3 0  9992,2 49141  69.9991  92.7238 0003174 255.1664 104.9144 14.98299793 45293,6950.286,96.109,574.357,569.945,0.0
49141.0,STARLINK-3093,PAYLOAD,2022-07-01 03:46:40,14.98320395,0.0002776,69.9992,92.0505,258.011,102.0738,0.00012824,1.437e-05,0.0,0 STARLINK-3093,1 49141U 21082M   22182.15740835  .00001437  00000-0  12824-3 0  9995,2 49141  69.9992  92.0505 0002776 258.0110 102.0738 14.98320395 45335,6950.223000000001,96.108,574.0169999999998,570.158,0.0
